ORBCOMM FM24 [-]        
1 25478U 98053D   23274.90958689  .00001964  00000+0  73682-3 0  9991
2 25478  45.0098 340.4813 0002234 271.1971  88.8620 14.34695496307694
ORBCOMM FM25 [-]        
1 25479U 98053E   23274.87326086  .00001898  00000+0  71412-3 0  9993
2 25479  45.0089 338.8845 0003200 325.8850  34.1791 14.34678462307987
ORBCOMM FM26 [-]        
1 25480U 98053F   23274.87442930  .00001567  00000+0  60300-3 0  9999
2 25480  45.0088 332.1830 0004320   6.5093 353.5809 14.34263547307932
ORBCOMM FM27 [+]        
1 25481U 98053G   23274.85778645  .00002152  00000+0  80343-3 0  9993
2 25481  45.0070 339.2123 0002264 230.9478 129.1167 14.34651916307915
ORBCOMM FM28 [-]        
1 25482U 98053H   23274.70795991  .00001689  00000+0  63485-3 0  9993
2 25482  45.0064 279.1818 0002806  12.6389 347.4528 14.35148091308553
ORBCOMM FM30 [-]        
1 25980U 99065A   23274.78765508  .00001584  00000+0  60771-3 0  9998
2 25980  45.0316 157.8994 0005557 117.2809 242.8605 14.34387387244711
ORBCOMM FM31 [-]        
1 25981U 99065B   23274.96454626  .00001411  00000+0  54642-3 0  9994
2 25981  45.0227 150.9420 0002590 139.3791 220.7249 14.34422401244299
ORBCOMM FM32 [+]        
1 25982U 99065C   23274.78511714  .00001482  00000+0  58344-3 0  9998
2 25982  45.0157 163.9579 0004506 145.8508 214.2629 14.33365395244925
